start=new Date('2022-08-29T00:00:00.000Z').valueOf();
sats=[{"ELEMENT_SET_NO":"999","COUNTRY_CODE":"US","OBJECT_TYPE":"PAYLOAD","MEAN_MOTION_DDOT":"0.0000000000000","TLE_LINE2":"2 53427  53.2202 155.3751 0001004  88.2015 183.8687 15.73232619  1307","ECCENTRICITY":"0.00010040","SEMIMAJOR_AXIS":"6727.802","MEAN_MOTION_DOT":"-0.00071140","GP_ID":"211215361","MEAN_ANOMALY":"183.8687","TLE_LINE1":"1 53427U 22097AR  22240.91667824 -.00071140  00000-0 -50606-3 0  9999","APOAPSIS":"350.343","CENTER_NAME":"EARTH","FILE":"3550014","PERIAPSIS":"348.992","RA_OF_ASC_NODE":"155.3751","MEAN_ELEMENT_THEORY":"SGP4","BSTAR":"-0.00050606000000","MEAN_MOTION":"15.73232619","EPHEMERIS_TYPE":"0","TIME_SYSTEM":"UTC","OBJECT_ID":"2022-097AR","INCLINATION":"53.2202","NORAD_CAT_ID":"53427","REV_AT_EPOCH":"130","REF_FRAME":"TEME","LAUNCH_DATE":"2022-08-10","CLASSIFICATION_TYPE":"U","OBJECT_NAME":"STARLINK-4541","DECAY_DATE":null,"EPOCH":"2022-08-28T22:00:00.999936","ARG_OF_PERICENTER":"88.2015","RCS_SIZE":"LARGE","PERIOD":"91.531","SITE":"AFETR"},{"FILE":"3550014","PERIAPSIS":"349.005","BSTAR":"0.00004937000000","MEAN_ELEMENT_THEORY":"SGP4","RA_OF_ASC_NODE":"155.3692","TIME_SYSTEM":"UTC","EPHEMERIS_TYPE":"0","MEAN_MOTION":"15.73195861","MEAN_ANOMALY":"188.6851","APOAPSIS":"350.539","TLE_LINE1":"1 53428U 22097AS  22240.91667824  .00006313  00000-0  49370-4 0  9995","CENTER_NAME":"EARTH","ECCENTRICITY":"0.00011400","MEAN_MOTION_DOT":"0.00006313","SEMIMAJOR_AXIS":"6727.907","GP_ID":"211215816","ELEMENT_SET_NO":"999","MEAN_MOTION_DDOT":"0.0000000000000","COUNTRY_CODE":"US","OBJECT_TYPE":"PAYLOAD","TLE_LINE2":"2 53428  53.2192 155.3692 0001140  86.3796 188.6851 15.73195861  1309","DECAY_DATE":null,"ARG_OF_PERICENTER":"86.3796","EPOCH":"2022-08-28T22:00:00.999936","PERIOD":"91.533","RCS_SIZE":"LARGE","SITE":"AFETR","CLASSIFICATION_TYPE":"U","OBJECT_NAME":"STARLINK-4540","REF_FRAME":"TEME","LAUNCH_DATE":"2022-08-10","OBJECT_ID":"2022-097AS","INCLINATION":"53.2192","REV_AT_EPOCH":"130","NORAD_CAT_ID":"53428"},{"TLE_LINE2":"2 53429  53.2193 155.3701 0001156  97.8484 176.6696 15.73177227  1300","COUNTRY_CODE":"US","OBJECT_TYPE":"PAYLOAD","MEAN_MOTION_DDOT":"0.0000000000000","ELEMENT_SET_NO":"999","GP_ID":"211215506","SEMIMAJOR_AXIS":"6727.960","MEAN_MOTION_DOT":"0.00011891","ECCENTRICITY":"0.00011560","CENTER_NAME":"EARTH","TLE_LINE1":"1 53429U 22097AT  22240.91667824  .00011891  00000-0  89106-4 0  9994","APOAPSIS":"350.603","MEAN_ANOMALY":"176.6696","MEAN_MOTION":"15.73177227","TIME_SYSTEM":"UTC","EPHEMERIS_TYPE":"0","RA_OF_ASC_NODE":"155.3701","MEAN_ELEMENT_THEORY":"SGP4","BSTAR":"0.00008910600000","PERIAPSIS":"349.047","FILE":"3550014","NORAD_CAT_ID":"53429","REV_AT_EPOCH":"130","INCLINATION":"53.2193","OBJECT_ID":"2022-097AT","LAUNCH_DATE":"2022-08-10","REF_FRAME":"TEME","OBJECT_NAME":"STARLINK-4543","CLASSIFICATION_TYPE":"U","SITE":"AFETR","RCS_SIZE":"LARGE","PERIOD":"91.535","EPOCH":"2022-08-28T22:00:00.999936","ARG_OF_PERICENTER":"97.8484","DECAY_DATE":null},{"RCS_SIZE":"LARGE","PERIOD":"91.530","SITE":"AFETR","DECAY_DATE":null,"EPOCH":"2022-08-28T22:00:00.999936","ARG_OF_PERICENTER":"87.5320","CLASSIFICATION_TYPE":"U","OBJECT_NAME":"STARLINK-4538","LAUNCH_DATE":"2022-08-10","REF_FRAME":"TEME","NORAD_CAT_ID":"53430","REV_AT_EPOCH":"130","OBJECT_ID":"2022-097AU","INCLINATION":"53.2202","RA_OF_ASC_NODE":"155.3693","BSTAR":"-0.00073789000000","MEAN_ELEMENT_THEORY":"SGP4","MEAN_MOTION":"15.73248255","EPHEMERIS_TYPE":"0","TIME_SYSTEM":"UTC","FILE":"3550014","PERIAPSIS":"348.871","APOAPSIS":"350.374","TLE_LINE1":"1 53430U 22097AU  22240.91667824 -.00103127  00000-0 -73789-3 0  9991","CENTER_NAME":"EARTH","MEAN_ANOMALY":"188.1400","GP_ID":"211215794","ECCENTRICITY":"0.00011170","SEMIMAJOR_AXIS":"6727.758","MEAN_MOTION_DOT":"-0.00103127","COUNTRY_CODE":"US","OBJECT_TYPE":"PAYLOAD","MEAN_MOTION_DDOT":"0.0000000000000","TLE_LINE2":"2 53430  53.2202 155.3693 0001117  87.5320 188.1400 15.73248255  1306","ELEMENT_SET_NO":"999"},{"TLE_LINE2":"2 53431  53.2195 155.3724 0000819  71.5247 202.3532 15.73255609  1308","OBJECT_TYPE":"PAYLOAD","COUNTRY_CODE":"US","MEAN_MOTION_DDOT":"0.0000000000000","ELEMENT_SET_NO":"999","GP_ID":"211214943","SEMIMAJOR_AXIS":"6727.737","MEAN_MOTION_DOT":"-0.00102462","ECCENTRICITY":"0.00008190","CENTER_NAME":"EARTH","APOAPSIS":"350.153","TLE_LINE1":"1 53431U 22097AV  22240.91667824 -.00102462  00000-0 -73284-3 0  9993","MEAN_ANOMALY":"202.3532","MEAN_MOTION":"15.73255609","EPHEMERIS_TYPE":"0","TIME_SYSTEM":"UTC","RA_OF_ASC_NODE":"155.3724","BSTAR":"-0.00073284000000","MEAN_ELEMENT_THEORY":"SGP4","PERIAPSIS":"349.051","FILE":"3550014","NORAD_CAT_ID":"53431","REV_AT_EPOCH":"130","INCLINATION":"53.2195","OBJECT_ID":"2022-097AV","LAUNCH_DATE":"2022-08-10","REF_FRAME":"TEME","OBJECT_NAME":"STARLINK-4548","CLASSIFICATION_TYPE":"U","SITE":"AFETR","RCS_SIZE":"LARGE","PERIOD":"91.530","EPOCH":"2022-08-28T22:00:00.999936","ARG_OF_PERICENTER":"71.5247","DECAY_DATE":null},{"MEAN_MOTION":"15.73219637","TIME_SYSTEM":"UTC","EPHEMERIS_TYPE":"0","RA_OF_ASC_NODE":"155.3668","BSTAR":"-0.00039077000000","MEAN_ELEMENT_THEORY":"SGP4","PERIAPSIS":"348.972","FILE":"3550014","CENTER_NAME":"EARTH","TLE_LINE1":"1 53432U 22097AW  22240.91667824 -.00055148  00000-0 -39077-3 0  9994","APOAPSIS":"350.436","MEAN_ANOMALY":"193.7855","GP_ID":"211215652","SEMIMAJOR_AXIS":"6727.839","MEAN_MOTION_DOT":"-0.00055148","ECCENTRICITY":"0.00010880","TLE_LINE2":"2 53432  53.2199 155.3668 0001088  83.6684 193.7855 15.73219637  1300","COUNTRY_CODE":"US","OBJECT_TYPE":"PAYLOAD","MEAN_MOTION_DDOT":"0.0000000000000","ELEMENT_SET_NO":"999","SITE":"AFETR","RCS_SIZE":"LARGE","PERIOD":"91.532","EPOCH":"2022-08-28T22:00:00.999936","ARG_OF_PERICENTER":"83.6684","DECAY_DATE":null,"OBJECT_NAME":"STARLINK-4557","CLASSIFICATION_TYPE":"U","LAUNCH_DATE":"2022-08-10","REF_FRAME":"TEME","NORAD_CAT_ID":"53432","REV_AT_EPOCH":"130","INCLINATION":"53.2199","OBJECT_ID":"2022-097AW"},{"OBJECT_NAME":"STARLINK-4549","CLASSIFICATION_TYPE":"U","EPOCH":"2022-08-28T22:00:00.999936","ARG_OF_PERICENTER":"82.4918","DECAY_DATE":null,"SITE":"AFETR","RCS_SIZE":"LARGE","PERIOD":"91.531","INCLINATION":"53.2193","OBJECT_ID":"2022-097AX","NORAD_CAT_ID":"53433","REV_AT_EPOCH":"130","REF_FRAME":"TEME","LAUNCH_DATE":"2022-08-10","MEAN_ANOMALY":"193.7510","CENTER_NAME":"EARTH","APOAPSIS":"350.449","TLE_LINE1":"1 53433U 22097AX  22240.91667824 -.00061840  00000-0 -43884-3 0  9992","PERIAPSIS":"348.888","FILE":"3550014","MEAN_MOTION":"15.73232231","EPHEMERIS_TYPE":"0","TIME_SYSTEM":"UTC","RA_OF_ASC_NODE":"155.3673","BSTAR":"-0.00043884000000","MEAN_ELEMENT_THEORY":"SGP4","ELEMENT_SET_NO":"999","TLE_LINE2":"2 53433  53.2193 155.3673 0001160  82.4918 193.7510 15.73232231  1302","COUNTRY_CODE":"US","OBJECT_TYPE":"PAYLOAD","MEAN_MOTION_DDOT":"0.0000000000000","SEMIMAJOR_AXIS":"6727.803","MEAN_MOTION_DOT":"-0.00061840","ECCENTRICITY":"0.00011600","GP_ID":"211215089"},{"TLE_LINE2":"2 53434  53.2192 155.3631 0001170  84.5109 194.1204 15.73226799  1309","COUNTRY_CODE":"US","OBJECT_TYPE":"PAYLOAD","MEAN_MOTION_DDOT":"0.0000000000000","ELEMENT_SET_NO":"999","GP_ID":"211215958","SEMIMAJOR_AXIS":"6727.819","MEAN_MOTION_DOT":"-0.00058252","ECCENTRICITY":"0.00011700","CENTER_NAME":"EARTH","APOAPSIS":"350.471","TLE_LINE1":"1 53434U 22097AY  22240.91667824 -.00058252  00000-0 -41304-3 0  9991","MEAN_ANOMALY":"194.1204","MEAN_MOTION":"15.73226799","EPHEMERIS_TYPE":"0","TIME_SYSTEM":"UTC","RA_OF_ASC_NODE":"155.3631","BSTAR":"-0.00041304000000","MEAN_ELEMENT_THEORY":"SGP4","FILE":"3550014","PERIAPSIS":"348.897","NORAD_CAT_ID":"53434","REV_AT_EPOCH":"130","INCLINATION":"53.2192","OBJECT_ID":"2022-097AY","LAUNCH_DATE":"2022-08-10","REF_FRAME":"TEME","OBJECT_NAME":"STARLINK-4498","CLASSIFICATION_TYPE":"U","SITE":"AFETR","RCS_SIZE":"LARGE","PERIOD":"91.532","EPOCH":"2022-08-28T22:00:00.999936","ARG_OF_PERICENTER":"84.5109","DECAY_DATE":null},{"FILE":"3550014","PERIAPSIS":"349.068","MEAN_ELEMENT_THEORY":"SGP4","BSTAR":"-0.00040353000000","RA_OF_ASC_NODE":"155.3674","EPHEMERIS_TYPE":"0","TIME_SYSTEM":"UTC","MEAN_MOTION":"15.73221574","MEAN_ANOMALY":"183.7924","TLE_LINE1":"1 53435U 22097AZ  22240.91667824 -.00056920  00000-0 -40353-3 0  9995","APOAPSIS":"350.330","CENTER_NAME":"EARTH","ECCENTRICITY":"0.00009380","MEAN_MOTION_DOT":"-0.00056920","SEMIMAJOR_AXIS":"6727.834","GP_ID":"211215362","ELEMENT_SET_NO":"999","MEAN_MOTION_DDOT":"0.0000000000000","COUNTRY_CODE":"US","OBJECT_TYPE":"PAYLOAD","TLE_LINE2":"2 53435  53.2199 155.3674 0000938  93.0547 183.7924 15.73221574  1305","DECAY_DATE":null,"ARG_OF_PERICENTER":"93.0547","EPOCH":"2022-08-28T22:00:00.999936","PERIOD":"91.532","RCS_SIZE":"LARGE","SITE":"AFETR","CLASSIFICATION_TYPE":"U","OBJECT_NAME":"STARLINK-4542","REF_FRAME":"TEME","LAUNCH_DATE":"2022-08-10","OBJECT_ID":"2022-097AZ","INCLINATION":"53.2199","REV_AT_EPOCH":"130","NORAD_CAT_ID":"53435"},{"SITE":"AFETR","PERIOD":"91.531","RCS_SIZE":"LARGE","ARG_OF_PERICENTER":"77.1098","EPOCH":"2022-08-28T22:00:00.999936","DECAY_DATE":null,"OBJECT_NAME":"STARLINK-4527","CLASSIFICATION_TYPE":"U","LAUNCH_DATE":"2022-08-10","REF_FRAME":"TEME","REV_AT_EPOCH":"130","NORAD_CAT_ID":"53436","INCLINATION":"53.2192","OBJECT_ID":"2022-097BA","EPHEMERIS_TYPE":"0","TIME_SYSTEM":"UTC","MEAN_MOTION":"15.73233032","MEAN_ELEMENT_THEORY":"SGP4","BSTAR":"-0.00052747000000","RA_OF_ASC_NODE":"155.3616","FILE":"3550014","PERIAPSIS":"348.999","CENTER_NAME":"EARTH","APOAPSIS":"350.333","TLE_LINE1":"1 53436U 22097BA  22240.91667824 -.00074099  00000-0 -52747-3 0  9993","MEAN_ANOMALY":"202.1184","GP_ID":"211215817","MEAN_MOTION_DOT":"-0.00074099","SEMIMAJOR_AXIS":"6727.801","ECCENTRICITY":"0.00009910","TLE_LINE2":"2 53436  53.2192 155.3616 0000991  77.1098 202.1184 15.73233032  1304","MEAN_MOTION_DDOT":"0.0000000000000","COUNTRY_CODE":"US","OBJECT_TYPE":"PAYLOAD","ELEMENT_SET_NO":"999"}];
